{"fetched_at":"2026-06-10T08:10:56Z","count":7447,"tles":[{"name":"STARLINK-34193","line1":"1 64011U 25101T   26159.84703429  .00012370  00000+0  45810-3 0  9994","line2":"2 64011  43.0025 203.4078 0002905 271.7965  88.2554 15.27591743 60995","category":"Starlink"},{"name":"FENGYUN 1C DEB","line1":"1 32161U 99025CTF 26104.04918778  .00000128  00000+0  10408-3 0  9991","line2":"2 32161  98.8305 209.8601 0133679 299.9633  58.8318 14.02001108651433","category":"Weather"},{"name":"IRIDIUM 33 DEB","line1":"1 35484U 97051QE  26103.80113515  .00023557  00000+0  14159-2 0  9995","line2":"2 35484  86.3434 295.0318 0013249  47.5262 312.7093 15.10685472638514","category":"Other"},{"name":"2024-182A","line1":"1 61507U 24182A   24288.67632810  .00000840 -26562-5  00000+0 0  9991","line2":"2 61507  31.9400  67.0176 0018900  60.7600  70.5300 16.38814738    06","category":"Other"},{"name":"STARLINK-3739","line1":"1 52266U 22041F   26160.44141111  .00012865  00000+0  81656-3 0  9992","line2":"2 52266  53.2141  57.2072 0001442  84.9980 275.1177 15.09215264228211","category":"Starlink"},{"name":"FENGYUN 1C DEB","line1":"1 29820U 99025DN  26104.75703926  .00000486  00000+0  33427-3 0  9997","line2":"2 29820  98.8331 113.1260 0071112 254.4037 285.3871 14.02824966982843","category":"Weather"},{"name":"STARLINK-36690","line1":"1 67913U 26036K   26160.49695365  .00022617  00000+0  82828-3 0  9993","line2":"2 67913  42.9934  86.7067 0002565 268.2105  91.8453 15.27602357 17764","category":"Starlink"},{"name":"CONNECTA T3.1","line1":"1 58256U 23174A   23362.15761484  .00011388  00000+0  62069-3 0  9991","line2":"2 58256  97.4749  74.2602 0012037 120.7434 239.4985 15.14493684  7623","category":"Other"},{"name":"STARLINK-6284","line1":"1 56403U 23061AF  26062.98107343  .04547832  92034-5  73897-3 0  9994","line2":"2 56403  42.9901 172.2404 0005264 309.8740  50.1687 16.32520729156548","category":"Starlink"},{"name":"KUIPER-00109","line1":"1 65147U 25171R   26160.11550624  .00002709  00000+0  38422-3 0  9997","line2":"2 65147  51.9016 111.2839 0000714  96.8232 263.2812 14.79927450 46466","category":"Other"},{"name":"STARLINK-35710","line1":"1 66212U 25244G   26160.31309143  .00016770  00000+0  57690-3 0  9993","line2":"2 66212  53.1579 164.6014 0001093  73.5376 286.5745 15.30209100 35685","category":"Starlink"},{"name":"M3MSAT","line1":"1 41605U 16040G   25352.84648353  .04808197  23557-5  54274-3 0  9994","line2":"2 41605  97.0322  23.0867 0004526 220.2725 139.8240 16.37114905529633","category":"Other"},{"name":"FLOCK 4G-10","line1":"1 62670U 25009BP  26160.18317781  .00009985  00000+0  35546-3 0  9994","line2":"2 62670  97.3922 241.3780 0004307  23.8095 336.3344 15.29142587135314","category":"Other"},{"name":"FENGYUN 1C DEB","line1":"1 31246U 99025BMC 26084.35476693  .00002961  00000+0  15952-2 0  9995","line2":"2 31246  98.8142 293.9351 0147915  54.9331 306.5610 14.08079618631964","category":"Weather"},{"name":"STARLINK-36242","line1":"1 68958U 26099H   26160.58337963  .00048871  00000+0  14505-2 0  9995","line2":"2 68958  53.1590 197.0023 0000782  64.9259 260.1206 15.34348620  6048","category":"Starlink"},{"name":"FALCON 9 R/B","line1":"1 59347U 24059B   26057.44443787  .01382462 -42148-5  95600-3 0  9993","line2":"2 59347  23.4821 214.0766 7370314  47.9550 354.5557  2.24395803  8931","category":"Other"},{"name":"STARLINK-6181","line1":"1 76181C 23083N   23172.41645833 -.00083563  00000-0 -63456-3 0  1725","line2":"2 76181  43.0032  89.6708 0001510 263.5507 297.3642 15.71456667    12","category":"Starlink"},{"name":"TITAN 34D TRANSTAGE R/B","line1":"1 19490U 88077C   26104.75961011  .00001296  00000+0  27990-2 0  9992","line2":"2 19490  26.3616 102.9948 7405565 297.7481   7.4013  2.04222160 51114","category":"Other"},{"name":"HULIANWANG DIGUI-109","line1":"1 66919U 25285E   26160.39867448 -.00000085  00000+0  83789-4 0  9999","line2":"2 66919  50.0049 173.8913 0001116 271.2117  88.8627 13.29338072 25030","category":"Other"},{"name":"STARLINK-11723 [DTC]","line1":"1 64075U 25107M   26160.41861997  .00211697  00000+0  16132-2 0  9997","line2":"2 64075  42.9985 265.4061 0001605 220.8985 139.1762 15.70816949 61726","category":"Starlink"},{"name":"APRIZESAT 4","line1":"1 35684U 09041D   26160.09779993  .00000574  00000+0  75109-4 0  9999","line2":"2 35684  98.1412 235.2570 0042967 349.6861  10.3466 14.83868357910162","category":"Other"},{"name":"GAOFEN-12 05","line1":"1 61571U 24186A   26160.57013199  .00000360  00000+0  53255-4 0  9993","line2":"2 61571  97.9100 168.8133 0001008  59.4462 300.6850 14.80951541 88216","category":"Other"},{"name":"STARLINK-3852","line1":"1 52345U 22045Q   26160.28520820 -.00000218  00000+0  44117-5 0  9997","line2":"2 52345  53.1656 148.0477 0001868  56.3644 303.7525 15.08829607229597","category":"Starlink"},{"name":"FENGYUN 1C DEB","line1":"1 29907U 99025HD  26104.95191759  .00001662  00000+0  89952-3 0  9991","line2":"2 29907  99.0981 178.5163 0081336 262.7996 272.8253 14.12320585983378","category":"Weather"},{"name":"STARLINK-36904","line1":"1 67977U 26038S   26160.51385539  .00026224  00000+0  81156-3 0  9998","line2":"2 67977  97.2869 170.3600 0001152  81.2643 278.8730 15.33453872 17317","category":"Starlink"},{"name":"FLOCK 4Q-2","line1":"1 58320U 23174BS  26160.57683529  .00022469  00000+0  41205-3 0  9992","line2":"2 58320  97.3826 248.8379 0006947 157.0102 203.1461 15.49274830144423","category":"Other"},{"name":"STARLINK-6041","line1":"1 56478U 23064AG  26160.51320519  .00000732  00000+0  69120-4 0  9999","line2":"2 56478  69.9988 252.9292 0003277 266.6896  93.3889 14.98328191169499","category":"Starlink"},{"name":"STARLINK-34833","line1":"1 65218U 25176W   26160.52270429  .00039367  00000+0  11695-2 0  9990","line2":"2 65218  53.1594  85.2414 0001433  82.1129 278.0037 15.34416851 47195","category":"Starlink"},{"name":"STARLINK-35742","line1":"1 66276U 25247M   26160.19549172  .00001531  00000+0  63810-4 0  9991","line2":"2 66276  53.1570 126.4043 0000802  83.4204 276.6889 15.30186876 35099","category":"Starlink"},{"name":"ASTRA 2E","line1":"1 39285U 13056A   26160.13363762  .00000167  00000+0  00000+0 0  9990","line2":"2 39285   0.0660 323.6010 0002701 123.8507 246.6953  1.00274204 46333","category":"Other"},{"name":"STARLINK-32774","line1":"1 62737U 25014C   26160.25393292  .00014682  00000+0  54170-3 0  9997","line2":"2 62737  43.0003   0.5145 0002124 266.3655  93.6954 15.27598290 77226","category":"Starlink"},{"name":"FENGYUN 1C DEB","line1":"1 31330U 99025BQJ 26040.04106110  .05449771  00000+0  24859-1 0  9995","line2":"2 31330  98.8546 220.6328 0023486 322.5221 164.5074 15.79163290980204","category":"Weather"},{"name":"HYDRA-3","line1":"1 69022U 26100AU  26160.47092545  .00005524  00000+0  26072-3 0  9994","line2":"2 69022  97.4036  58.3866 0005891  37.9978 322.1672 15.19840308  5638","category":"Other"},{"name":"STARLINK-31568","line1":"1 59412U 24064Q   26160.55518019  .00001143  00000+0  51065-4 0  9995","line2":"2 59412  43.0017 257.5159 0001282 263.8466  96.2239 15.27583820123277","category":"Starlink"},{"name":"UNKNOWN","line1":"1 81111U          26103.42683764  .00005178  00000+0  10204-2 0  9993","line2":"2 81111  62.8669 264.4426 3844589   2.0752 359.1824  7.59374757281160","category":"Other"},{"name":"ONEWEB-0346","line1":"1 49212U 21083AC  26160.48180250  .00000087  00000+0  18858-3 0  9992","line2":"2 49212  87.9159 336.9915 0002437  83.8934 276.2476 13.18686113228965","category":"Other"},{"name":"SL-12 R/B(2)","line1":"1 20696U 90061D   26105.03828934 -.00000370  00000+0  00000+0 0  9999","line2":"2 20696  12.6976 336.8080 0031587 218.4793 141.8255  1.00299392129768","category":"Other"},{"name":"STARLINK-36145","line1":"1 66983U 25288AA  26160.47849207  .00013644  00000+0  50408-3 0  9990","line2":"2 66983  43.0012 225.2175 0000545 235.5867 124.4933 15.27602287 29320","category":"Starlink"},{"name":"2023-003D","line1":"1 55136U 23003D   23362.46545833  .00022365  00000+0  67048-3 0  9997","line2":"2 55136  97.2475  83.0332 0011093 118.8695 241.3663 15.34434913 53917","category":"Other"},{"name":"STARLINK-34212","line1":"1 64139U 25111S   26160.02288674  .00015615  00000+0  57557-3 0  9994","line2":"2 64139  42.9975 281.8926 0002209 274.5385  85.5214 15.27589263 59438","category":"Starlink"},{"name":"FENGYUN 1C DEB","line1":"1 32425U 99025DAM 26093.60166162  .00001194  00000+0  46861-3 0  9991","line2":"2 32425  96.7142 219.6628 0230865 321.8857  36.6185 14.17112509711198","category":"Weather"},{"name":"STARLINK-35006","line1":"1 65284U 25184M   26160.41876768  .00002272  00000+0  16143-3 0  9997","line2":"2 65284  97.3842 212.3421 0001219  95.6118 264.5249 15.05651604 45103","category":"Starlink"},{"name":"NIMIQ 5","line1":"1 35873U 09050A   26160.39875964 -.00000240  00000+0  00000+0 0  9991","line2":"2 35873   0.0322 275.8761 0002909 158.0136 254.7472  1.00271769 61264","category":"Other"},{"name":"STARLINK-32405","line1":"1 61636U 24191R   26159.84892882 -.00001061  00000+0 -29057-4 0  9997","line2":"2 61636  43.0106   3.5262 0001307 256.8933 103.1773 15.27568950 91430","category":"Starlink"},{"name":"SPACEBEE-147","line1":"1 52415U 22047X   23362.01239925  .00065824  00000+0  14472-2 0  9993","line2":"2 52415  97.4067  86.2727 0004937  20.5410 339.6036 15.43756760 93386","category":"Other"},{"name":"FENGYUN 1C DEB","line1":"1 29976U 99025LA  26104.93097500  .00000461  00000+0  26220-3 0  9999","line2":"2 29976  98.9257 104.0027 0266536 258.9574 160.7458 13.98282620980589","category":"Weather"},{"name":"STARLINK-36825","line1":"1 68041U 26041B   26159.75131974  .00035541  00000+0  10576-2 0  9990","line2":"2 68041  53.1586 344.5226 0001069  98.5183 261.5941 15.34413914 15363","category":"Starlink"},{"name":"STARLINK-30898","line1":"1 58387U 23178P   26160.51478472  .00004170  00000+0  13449-3 0  9990","line2":"2 58387  53.1620 293.4809 0001140 106.4013 253.7115 15.34397288143963","category":"Starlink"}]}